GLOBALSTAR M024         
1 25883U 99043A   25123.47220424 -.00000007  00000+0  20680-2 0  9994
2 25883  51.9976 121.5129 0001460  17.6502 145.7988 11.10165404109890
GLOBALSTAR M027         
1 25884U 99043B   25123.60181377 -.00000088  00000+0 -91122-3 0  9993
2 25884  52.0194 197.9427 0021232 278.3403  81.4983 11.04372051136317
GLOBALSTAR M054         
1 25885U 99043C   25122.95874567 -.00000040  00000+0  79008-3 0  9997
2 25885  52.0160 334.2666 0006683  95.1384  45.7120 11.39212448114221
GLOBALSTAR M053         
1 25886U 99043D   25123.57923582 -.00000053  00000+0  46727-3 0  9995
2 25886  51.9981 277.3972 0002979  19.7867  60.5383 11.27664946114418
GLOBALSTAR M058         
1 25907U 99049A   25123.57550864 -.00000024  00000+0  80720-3 0  9993
2 25907  51.9935 228.2998 0002416 171.9216 188.1657 11.93197779536214
GLOBALSTAR M050         
1 25908U 99049B   25123.58436425 -.00000145  00000+0 -64286-3 0  9995
2 25908  51.9985 239.2843 0008483 301.5411  71.1255 12.07452805142802
GLOBALSTAR M033         
1 25909U 99049C   25123.21796839 -.00000090  00000+0  11308-4 0  9990
2 25909  51.9885 115.2253 0013492 169.9282 190.1837 12.20291033530255
GLOBALSTAR M055         
1 25910U 99049D   25123.29771921 -.00000083  00000+0  94637-4 0  9993
2 25910  51.9991 127.9360 0007054  38.2992 321.8360 12.29426857162761
